LINK                    
1 42714U 98067LV  17297.54743827  .00030573  00000-0  35845-3 0  9990
2 42714  51.6362 109.8025 0000918   7.5504 352.5503 15.61233688 24784
CSUNSAT 1               
1 42715U 98067LW  17297.54717388  .00020526  00000-0  26083-3 0  9995
2 42715  51.6380 110.5572 0003387  12.3186 347.7889 15.59360966 24661
UPSAT                   
1 42716U 98067LX  17297.53461474  .00029056  00000-0  34376-3 0  9998
2 42716  51.6377 109.7264 0003599 103.9875 256.1518 15.61021806 24801
SPACECUBE               
1 42717U 98067LY  17297.57470293  .00024523  00000-0  30261-3 0  9995
2 42717  51.6375 109.9926 0003819 101.7253 258.4169 15.60017013 24045
HOOPOE                  
1 42718U 98067LZ  17297.55449408  .00027249  00000-0  32922-3 0  9992
2 42718  51.6375 109.8582 0003657 101.4925 258.6479 15.60508836 24040
CHALLENGER              
1 42721U 98067MA  17297.52577476  .00034889  00000-0  39561-3 0  9994
2 42721  51.6365 109.6557 0005297  75.2480 284.9101 15.62020942 23748
NJUST-1                 
1 42722U 98067MB  17297.57396952  .00018914  00000-0  24486-3 0  9999
2 42722  51.6377 110.7354 0006592  75.4220 284.7504 15.58913238 23731
UNSW-ECO                
1 42723U 98067MC  17297.52276195  .00026396  00000-0  32054-3 0  9994
2 42723  51.6381 110.3974 0005858  75.5932 284.5711 15.60384036 23713
DUTHSAT                 
1 42724U 98067MD  17297.47809018  .00034173  00000-0  39239-3 0  9999
2 42724  51.6375 110.0954 0004617  80.5409 279.6107 15.61709346 23630
LILACSAT-1              
1 42725U 98067ME  17297.56631488  .00023393  00000-0  29608-3 0  9995
2 42725  51.6378 110.6875 0005367  79.5877 280.5721 15.59369760 23656
NSIGHT-1                
1 42726U 98067MF  17297.50884727  .00010282  00000-0  14440-3 0  9997
2 42726  51.6391 111.8074 0006340  79.1994 280.9711 15.57338558 23623
SNUSAT-1                
1 42727U 98067MG  17297.11557713  .00020076  00000-0  25609-3 0  9998
2 42727  51.6366 112.9149 0006514  33.5465 326.5939 15.59261222 23535
QBITO                   
1 42728U 98067MH  17297.53773638  .00023455  00000-0  29132-3 0  9990
2 42728  51.6394 110.5064 0002978  94.1914 265.9419 15.59875930 23445
AALTO-2                 
1 42729U 98067MJ  17297.40927815  .00023750  00000-0  29460-3 0  9997
2 42729  51.6382 111.1405 0002878  93.6053 266.5269 15.59901914 23437
SUSAT                   
1 42730U 98067MK  17297.48364429  .00022259  00000-0  27930-3 0  9996
2 42730  51.6378 110.8836 0003007  89.7713 270.3624 15.59640423 23435
I-INSPIRE II            
1 42731U 98067ML  17296.87234945  .00027392  00000-0  32959-3 0  9998
2 42731  51.6366 113.5392 0005465  15.6758 344.4403 15.60605095 23398
POLYITAN-2-SAU          
1 42732U 98067MM  17297.53145317  .00024448  00000-0  30127-3 0  9991
2 42732  51.6373 110.4427 0005731  17.5798 342.5393 15.60045862 23491
SNUSAT-1B               
1 42733U 98067MN  17297.48345233  .00020424  00000-0  25693-3 0  9997
2 42733  51.6375 110.8743 0005781  21.4674 338.6561 15.59622429 23481
EXALTA-1                
1 42734U 98067MP  17296.68363366  .00026499  00000-0  32089-3 0  9991
2 42734  51.6367 114.5310 0006978  43.9886 316.1661 15.60447596 23313
AOXIANG-1               
1 42735U 98067MQ  17297.56891079  .00019307  00000-0  24877-3 0  9993
2 42735  51.6370 110.6985 0007082  71.4062 288.7699 15.59019996 24865
BEEAGLESAT              
1 42736U 98067MR  17296.91920901  .00021244  00000-0  27016-3 0  9990
2 42736  51.6370 113.8599 0006795  68.0482 292.1233 15.59300878 23459
ATLANTIS                
1 42737U 98067MS  17297.48414471  .00058401  00000-0  57514-3 0  9995
2 42737  51.6348 108.6166 0003894  64.5994 295.5404 15.65388376 23467
PROGRESS-MS 06          
1 42756U 17033A   17296.52739672  .00003300  00000-0  56864-4 0  9993
2 42756  51.6414 118.5299 0005263  52.0333  47.7403 15.54237793 81712
ISS DEB (ROSA)          
1 42813U 98067MT  17296.98220332  .00101288  00000-0  98543-3 0  9994
2 42813  51.6354 112.7737 0001612 334.5262  25.5653 15.65467530 81835
SOYUZ-MS 05             
1 42898U 17043A   17296.52739672  .00003300  00000-0  56864-4 0  9991
2 42898  51.6414 118.5299 0005263  52.0333  47.7403 15.54237793 81719
SOYUZ-MS 06             
1 42937U 17054A   17296.52739672  .00003300  00000-0  56864-4 0  9997
2 42937  51.6414 118.5299 0005263  52.0333  47.7403 15.54237793 81713
PROGRESS-MS 07          
1 42971U 17065A   17296.52739672  .00003300  00000-0  56864-4 0  9997
2 42971  51.6414 118.5299 0005263  52.0333  47.7403 15.54237793 81711
